DUBAISAT-1              
1 35682U 09041B   26189.93067776  .00000591  00000+0  95098-4 0  9998
2 35682  98.0077 322.9535 0010414   8.9680 351.1713 14.75160197908309
OCEANSAT-2              
1 35931U 09051A   26190.86062420 -.00000167  00000+0 -88695-4 0  9997
2 35931  98.2318 175.4485 0016993 168.9582 191.1961 13.99656939882506
WORLDVIEW-2 (WV-2)      
1 35946U 09055A   26190.77921924  .00000044  00000+0  29072-4 0  9996
2 35946  98.4758 263.9210 0005080 142.9156 217.2382 14.37905981878896
SMOS                    
1 36036U 09059A   26189.94163681  .00000164  00000+0  66309-4 0  9993
2 36036  98.4428  16.9579 0001136  94.8218 265.3100 14.39733454876589
YAOGAN-7                
1 36110U 09069A   26189.61704388  .00000339  00000+0  54067-4 0  9998
2 36110  98.0044  75.3492 0023935 333.3807  26.6172 14.78031471892792
TANDEM-X                
1 36605U 10030A   26188.47915494  .00000386  00000+0  21566-4 0  9992
2 36605  97.4457 195.8973 0001887  94.3019 265.8431 15.19154052889726
CARTOSAT-2B             
1 36795U 10035A   26190.87402777 -.00000161  00000+0 -14781-4 0  9993
2 36795  97.9943 241.2773 0012446 114.4233 245.8278 14.78611521863205
YAOGAN-10               
1 36834U 10038A   26190.85841005  .00001190  00000+0  14438-3 0  9998
2 36834  97.8978 214.0817 0001732  83.2898  18.9846 14.85419769860574
COSMO-SKYMED 4          
1 37216U 10060A   26190.85722118  .00000267  00000+0  40122-4 0  9995
2 37216  97.8897  14.1292 0001481  84.5478 275.5904 14.82145290847926
RESOURCESAT-2           
1 37387U 11015A   26190.75228468  .00000003  00000+0  21523-4 0  9995
2 37387  98.7634 258.0371 0011268 186.4486 173.6548 14.21605126789385
HAIYANG-2A              
1 37781U 11043A   26190.83020362 -.00000014  00000+0  31915-4 0  9995
2 37781  99.3402 192.9919 0003318  43.9053 316.2359 13.73551708749766
RASAT                   
1 37791U 11044D   26190.88134008  .00000314  00000+0  62909-4 0  9994
2 37791  98.0573 281.9326 0021754 118.4908 350.9963 14.68189581796516
SRMSAT                  
1 37841U 11058D   26190.62459529  .00000355  00000+0  48802-4 0  9996
2 37841  19.9720 283.6652 0011875  90.4763 307.0339 14.11580289760991
PLEIADES 1A             
1 38012U 11076F   26190.84723441  .00000074  00000+0  25707-4 0  9995
2 38012  98.1967 265.6451 0001734  82.3845  54.2142 14.58544830775290
ZIYUAN 1-02C (ZY 1-02C) 
1 38038U 11079A   26190.89985916  .00000000  00000+0  14323-4 0  9999
2 38038  98.4061 257.7331 0005329 233.1368 215.5794 14.38232107762475
ARIRANG-3 (KOMPSAT-3)   
1 38338U 12025B   26190.81993807  .00000272  00000+0  63294-4 0  9996
2 38338  98.1182 147.8909 0006507  52.7596 307.4198 14.62226205754655
EXACTVIEW-1 (ADS-1B)    
1 38709U 12039C   26190.28848470  .00000066  00000+0  48059-4 0  9992
2 38709  98.9798 308.1803 0011932 106.9299 253.3189 14.24991160725859
SPOT 6                  
1 38755U 12047A   26190.83657375  .00000079  00000+0  26856-4 0  9990
2 38755  98.2108 257.8795 0001147  81.7990 278.3339 14.58536886736351
PLEIADES 1B             
1 39019U 12068A   26190.85515198  .00000005  00000+0  10799-4 0  9993
2 39019  98.1938 265.5943 0001634  81.2832 278.8552 14.58532191724159
GOKTURK 2               
1 39030U 12073A   26190.79798444  .00000666  00000+0  10457-3 0  9995
2 39030  97.6820  27.0955 0000921  79.9103 280.2211 14.75566656727843
LANDSAT 8               
1 39084U 13008A   26190.82316649  .00000179  00000+0  49866-4 0  9996
2 39084  98.2292 260.6886 0001358  93.8169 266.3184 14.57109555701197
SARAL                   
1 39086U 13009A   26190.80550515  .00000056  00000+0  36520-4 0  9996
2 39086  98.5554  17.0866 0001370 181.2570 178.8611 14.32894850698848
GAOFEN-1                
1 39150U 13018A   26190.83293198  .00000527  00000+0  82710-4 0  9997
2 39150  97.9083 262.4398 0016609 188.5228 171.5703 14.76515541711581
VNREDSAT 1              
1 39160U 13021B   26190.83509163 -.00000097  00000+0 -97436-5 0  9990
2 39160  97.9070 243.3810 0001658  80.7799 279.3592 14.64879098703603
ARIRANG-5 (KOMPSAT-5)   
1 39227U 13042A   26190.84537321  .00001184  00000+0  88852-4 0  9992
2 39227  97.6222  17.2279 0005522  71.3580 288.8245 15.04519879707267
SKYSAT-A                
1 39418U 13066C   26190.54461546  .00002223  00000+0  12862-3 0  9994
2 39418  97.3805 239.2292 0020026 233.9327 126.0050 15.13096648691864
DUBAISAT-2              
1 39419U 13066D   26190.86264580  .00003014  00000+0  18739-3 0  9997
2 39419  97.4572 180.4155 0009788 322.8276  37.2275 15.10349051689815
GPM-CORE                
1 39574U 14009C   26190.80305456  .00004108  00000+0  91938-4 0  9997
2 39574  64.9701 232.3580 0011063 260.2443  99.7448 15.45002483701306
SENTINEL-1A             
1 39634U 14016A   26190.85890619 -.00000144  00000+0 -20937-4 0  9996
2 39634  98.1788 198.0605 0001443  86.7689 273.3676 14.59199000653324
KAZEOSAT 1              
1 39731U 14024A   26190.84938212 -.00000019  00000+0  72614-5 0  9994
2 39731  98.3196 262.7323 0001283  81.7786 278.3549 14.42035741641827
ALOS-2                  
1 39766U 14029A   26190.86380984  .00000592  00000+0  86155-4 0  9995
2 39766  97.9220 287.7038 0001634  91.0180 269.1219 14.79474132654939
